*******************************************************************************
 Revised: July 31, 2013             Moon / (Earth)                          301
 
 GEOPHYSICAL DATA (updated 2018-Aug-15):
  Vol. mean radius, km  = 1737.53+-0.03    Mass, x10^22 kg       =    7.349
  Radius (gravity), km  = 1738.0           Surface emissivity    =    0.92
  Radius (IAU), km      = 1737.4           GM, km^3/s^2          = 4902.800066
  Density, g/cm^3       =    3.3437        GM 1-sigma, km^3/s^2  =  +-0.0001  
  V(1,0)                =   +0.21          Surface accel., m/s^2 =    1.62
  Earth/Moon mass ratio = 81.3005690769    Farside crust. thick. = ~80 - 90 km
  Mean crustal density  = 2.97+-.07 g/cm^3 Nearside crust. thick.= 58+-8 km 
  Heat flow, Apollo 15  = 3.1+-.6 mW/m^2   Mean angular diameter = 31'05.2"
  Heat flow, Apollo 17  = 2.2+-.5 mW/m^2   Sid. rot. rate, rad/s = 0.0000026617
  Geometric Albedo      = 0.12             Mean solar day        = 29.5306 d
  Obliquity to orbit    = 6.67 deg         Orbit period          = 27.321582 d
  Semi-major axis, a    = 384400 km        Eccentricity          = 0.05490
  Mean motion, rad/s    = 2.6616995x10^-6  Inclination           = 5.145 deg
  Apsidal period        = 3231.50 d        Nodal period          = 6798.38 d
                                 Perihelion  Aphelion    Mean
  Solar Constant (W/m^2)         1414+-7     1323+-7     1368+-7
  Maximum Planetary IR (W/m^2)   1314        1226        1268
  Minimum Planetary IR (W/m^2)      5.2         5.2         5.2
********************************************************************************


*******************************************************************************
Ephemeris / WWW_USER Thu Apr 28 15:50:53 2022 Pasadena, USA      / Horizons    
*******************************************************************************
Target body name: Moon (301)                      {source: DE441}
Center body name: Earth (399)                     {source: DE441}
Center-site name: GEOCENTRIC
*******************************************************************************
Start time      : A.D. 2021-Dec-01 00:46:41.0000 UT      
Stop  time      : A.D. 2021-Dec-01 00:49:25.0000 UT      
Step-size       : 300 steps
*******************************************************************************
Target pole/equ : MOON_ME                         {East-longitude positive}
Target radii    : 1737.4 x 1737.4 x 1737.4 km     {Equator, meridian, pole}    
Center geodetic : 0.00000000,0.00000000,0.0000000 {E-lon(deg),Lat(deg),Alt(km)}
Center cylindric: 0.00000000,0.00000000,0.0000000 {E-lon(deg),Dxy(km),Dz(km)}
Center pole/equ : ITRF93                          {East-longitude positive}
Center radii    : 6378.1 x 6378.1 x 6356.8 km     {Equator, meridian, pole}    
Target primary  : Earth
Vis. interferer : MOON (R_eq= 1737.400) km        {source: DE441}
Rel. light bend : Sun, EARTH                      {source: DE441}
Rel. lght bnd GM: 1.3271E+11, 3.9860E+05 km^3/s^2                              
Atmos refraction: NO (AIRLESS)
RA format       : DEG
Time format     : JD  
EOP file        : eop.220427.p220721                                           
EOP coverage    : DATA-BASED 1962-JAN-20 TO 2022-APR-27. PREDICTS-> 2022-JUL-20
Units conversion: 1 au= 149597870.700 km, c= 299792.458 km/s, 1 day= 86400.0 s 
Table cut-offs 1: Elevation (-90.0deg=NO ),Airmass (>38.000=NO), Daylight (NO )
Table cut-offs 2: Solar elongation (  0.0,180.0=NO ),Local Hour Angle( 0.0=NO )
Table cut-offs 3: RA/DEC angular rate (     0.0=NO )                           
Table format    : Comma Separated Values (spreadsheet)
*****************************************************************************************************
Date_________JDUT, , , R.A._(ICRF), DEC_(ICRF), R.A._(a-app), DEC_(a-app), Azi_(a-app), Elev_(a-app),
*****************************************************************************************************
$$SOE
2459549.532792284, , ,   202.49221,   -5.86820,    202.76975,    -5.97836,        n.a.,         n.a.,
2459549.532798611, , ,   202.49229,   -5.86824,    202.76983,    -5.97840,        n.a.,         n.a.,
2459549.532804938, , ,   202.49237,   -5.86828,    202.76991,    -5.97844,        n.a.,         n.a.,
2459549.532811265, , ,   202.49246,   -5.86832,    202.77000,    -5.97848,        n.a.,         n.a.,
2459549.532817592, , ,   202.49254,   -5.86836,    202.77008,    -5.97852,        n.a.,         n.a.,
2459549.532823920, , ,   202.49262,   -5.86840,    202.77016,    -5.97856,        n.a.,         n.a.,
2459549.532830247, , ,   202.49270,   -5.86844,    202.77024,    -5.97860,        n.a.,         n.a.,
2459549.532836574, , ,   202.49279,   -5.86848,    202.77033,    -5.97864,        n.a.,         n.a.,
2459549.532842901, , ,   202.49287,   -5.86852,    202.77041,    -5.97868,        n.a.,         n.a.,
2459549.532849228, , ,   202.49295,   -5.86856,    202.77049,    -5.97872,        n.a.,         n.a.,
2459549.532855555, , ,   202.49303,   -5.86860,    202.77057,    -5.97876,        n.a.,         n.a.,
2459549.532861883, , ,   202.49312,   -5.86864,    202.77066,    -5.97880,        n.a.,         n.a.,
2459549.532868210, , ,   202.49320,   -5.86868,    202.77074,    -5.97884,        n.a.,         n.a.,
2459549.532874537, , ,   202.49328,   -5.86872,    202.77082,    -5.97888,        n.a.,         n.a.,
2459549.532880864, , ,   202.49336,   -5.86876,    202.77090,    -5.97892,        n.a.,         n.a.,
2459549.532887192, , ,   202.49345,   -5.86880,    202.77099,    -5.97896,        n.a.,         n.a.,
2459549.532893518, , ,   202.49353,   -5.86884,    202.77107,    -5.97900,        n.a.,         n.a.,
2459549.532899846, , ,   202.49361,   -5.86888,    202.77115,    -5.97903,        n.a.,         n.a.,
2459549.532906173, , ,   202.49369,   -5.86892,    202.77123,    -5.97907,        n.a.,         n.a.,
2459549.532912500, , ,   202.49378,   -5.86896,    202.77132,    -5.97911,        n.a.,         n.a.,
2459549.532918827, , ,   202.49386,   -5.86899,    202.77140,    -5.97915,        n.a.,         n.a.,
2459549.532925154, , ,   202.49394,   -5.86903,    202.77148,    -5.97919,        n.a.,         n.a.,
2459549.532931481, , ,   202.49402,   -5.86907,    202.77156,    -5.97923,        n.a.,         n.a.,
2459549.532937808, , ,   202.49411,   -5.86911,    202.77165,    -5.97927,        n.a.,         n.a.,
2459549.532944136, , ,   202.49419,   -5.86915,    202.77173,    -5.97931,        n.a.,         n.a.,
2459549.532950463, , ,   202.49427,   -5.86919,    202.77181,    -5.97935,        n.a.,         n.a.,
2459549.532956790, , ,   202.49435,   -5.86923,    202.77190,    -5.97939,        n.a.,         n.a.,
2459549.532963117, , ,   202.49444,   -5.86927,    202.77198,    -5.97943,        n.a.,         n.a.,
2459549.532969445, , ,   202.49452,   -5.86931,    202.77206,    -5.97947,        n.a.,         n.a.,
2459549.532975771, , ,   202.49460,   -5.86935,    202.77214,    -5.97951,        n.a.,         n.a.,
2459549.532982099, , ,   202.49468,   -5.86939,    202.77223,    -5.97955,        n.a.,         n.a.,
2459549.532988426, , ,   202.49477,   -5.86943,    202.77231,    -5.97959,        n.a.,         n.a.,
2459549.532994753, , ,   202.49485,   -5.86947,    202.77239,    -5.97963,        n.a.,         n.a.,
2459549.533001080, , ,   202.49493,   -5.86951,    202.77247,    -5.97967,        n.a.,         n.a.,
2459549.533007408, , ,   202.49501,   -5.86955,    202.77256,    -5.97971,        n.a.,         n.a.,
2459549.533013735, , ,   202.49510,   -5.86959,    202.77264,    -5.97975,        n.a.,         n.a.,
2459549.533020062, , ,   202.49518,   -5.86963,    202.77272,    -5.97979,        n.a.,         n.a.,
2459549.533026389, , ,   202.49526,   -5.86967,    202.77280,    -5.97982,        n.a.,         n.a.,
2459549.533032716, , ,   202.49534,   -5.86971,    202.77289,    -5.97986,        n.a.,         n.a.,
2459549.533039043, , ,   202.49543,   -5.86975,    202.77297,    -5.97990,        n.a.,         n.a.,
2459549.533045370, , ,   202.49551,   -5.86979,    202.77305,    -5.97994,        n.a.,         n.a.,
2459549.533051698, , ,   202.49559,   -5.86983,    202.77313,    -5.97998,        n.a.,         n.a.,
2459549.533058024, , ,   202.49567,   -5.86987,    202.77322,    -5.98002,        n.a.,         n.a.,
2459549.533064352, , ,   202.49576,   -5.86990,    202.77330,    -5.98006,        n.a.,         n.a.,
2459549.533070679, , ,   202.49584,   -5.86994,    202.77338,    -5.98010,        n.a.,         n.a.,
2459549.533077006, , ,   202.49592,   -5.86998,    202.77346,    -5.98014,        n.a.,         n.a.,
2459549.533083333, , ,   202.49600,   -5.87002,    202.77355,    -5.98018,        n.a.,         n.a.,
2459549.533089661, , ,   202.49609,   -5.87006,    202.77363,    -5.98022,        n.a.,         n.a.,
2459549.533095988, , ,   202.49617,   -5.87010,    202.77371,    -5.98026,        n.a.,         n.a.,
2459549.533102315, , ,   202.49625,   -5.87014,    202.77379,    -5.98030,        n.a.,         n.a.,
2459549.533108642, , ,   202.49633,   -5.87018,    202.77388,    -5.98034,        n.a.,         n.a.,
2459549.533114969, , ,   202.49642,   -5.87022,    202.77396,    -5.98038,        n.a.,         n.a.,
2459549.533121296, , ,   202.49650,   -5.87026,    202.77404,    -5.98042,        n.a.,         n.a.,
2459549.533127624, , ,   202.49658,   -5.87030,    202.77412,    -5.98046,        n.a.,         n.a.,
2459549.533133951, , ,   202.49666,   -5.87034,    202.77421,    -5.98050,        n.a.,         n.a.,
2459549.533140277, , ,   202.49675,   -5.87038,    202.77429,    -5.98054,        n.a.,         n.a.,
2459549.533146605, , ,   202.49683,   -5.87042,    202.77437,    -5.98058,        n.a.,         n.a.,
2459549.533152932, , ,   202.49691,   -5.87046,    202.77445,    -5.98061,        n.a.,         n.a.,
2459549.533159259, , ,   202.49699,   -5.87050,    202.77454,    -5.98065,        n.a.,         n.a.,
